XCUBE-1                 
1 62400U 24247Z   26068.48297321  .00009773  00000+0  36224-3 0  9994
2 62400  44.9938 117.7807 0005235 331.1499  28.9094 15.27910558 67702
STARLINK-36180          
1 67114U 25299N   26068.29547513  .00026728  00000+0  95248-3 0  9999
2 67114  42.9978 171.4194 0001102 319.3332  40.7437 15.28423882 13052
