[{"OBJECT_NAME":"XCUBE-1","OBJECT_ID":"2024-247Z","EPOCH":"2026-03-09T11:35:28.885344","MEAN_MOTION":15.27910558,"ECCENTRICITY":0.00052355,"INCLINATION":44.9938,"RA_OF_ASC_NODE":117.7807,"ARG_OF_PERICENTER":331.1499,"MEAN_ANOMALY":28.9094,"EPHEMERIS_TYPE":0,"CLASSIFICATION_TYPE":"U","NORAD_CAT_ID":62400,"ELEMENT_SET_NO":999,"REV_AT_EPOCH":6770,"BSTAR":0.00036224252,"MEAN_MOTION_DOT":9.773e-5,"MEAN_MOTION_DDOT":0},{"OBJECT_NAME":"STARLINK-36180","OBJECT_ID":"2025-299N","EPOCH":"2026-03-09T07:05:29.051232","MEAN_MOTION":15.28423882,"ECCENTRICITY":0.00011024,"INCLINATION":42.9978,"RA_OF_ASC_NODE":171.4194,"ARG_OF_PERICENTER":319.3332,"MEAN_ANOMALY":40.7437,"EPHEMERIS_TYPE":0,"CLASSIFICATION_TYPE":"U","NORAD_CAT_ID":67114,"ELEMENT_SET_NO":999,"REV_AT_EPOCH":1305,"BSTAR":0.00095247551,"MEAN_MOTION_DOT":0.00026728,"MEAN_MOTION_DDOT":0}]
